FLOCK 4G-21             
1 62651U 25009AU  26068.19487675  .00013648  00000+0  49619-3 0  9998
2 62651  97.4032 151.1274 0000465 329.5782  30.5431 15.28381075 63677
STARLINK-33608          
1 63425U 25065AC  26068.52188495  .00031623  00000+0  11526-2 0  9993
2 63425  42.9988 108.0021 0000484 240.5355 119.5448 15.27612250 52813
